ONEWEB-0247             
1 48777U 21045L   24039.54739676  .00000104  00000+0  24180-3 0  9992
2 48777  87.8953  70.3193 0003009  86.5884 273.5591 13.15547253131383
ONEWEB-0245             
1 48778U 21045M   24039.54264209  .00000184  00000+0  45458-3 0  9997
2 48778  87.8944  70.3184 0001868  83.7277 276.4066 13.15548342131356
ONEWEB-0229             
1 48779U 21045N   24039.61394377  .00000191  00000+0  47196-3 0  9995
2 48779  87.8947  70.2961 0002099  94.0925 266.0445 13.15547355131397
ONEWEB-0228             
1 48780U 21045P   24039.55293263  .00000021  00000+0  21233-4 0  9999
2 48780  87.8944  70.2866 0002025  93.9605 266.1757 13.15547482131301
ONEWEB-0232             
1 48781U 21045Q   24039.54580654  .00000146  00000+0  35378-3 0  9994
2 48781  87.8940  70.3153 0002010  93.7636 266.3724 13.15548960131627
ONEWEB-0231             
1 48782U 21045R   24039.59968160  .00000184  00000+0  45411-3 0  9993
2 48782  87.8954  70.3146 0002167  91.2875 268.8504 13.15547961132462
ONEWEB-0234             
1 48783U 21045S   24039.54342688  .00000126  00000+0  30189-3 0  9992
2 48783  87.8948  70.2949 0000592  64.2917 295.8274 13.15547564131454
ONEWEB-0238             
1 48784U 21045T   24039.57352771 -.00000084  00000+0 -25678-3 0  9992
2 48784  87.8947  70.3074 0001751  94.5343 265.5987 13.15549309131354
